start=new Date('2022-02-24T00:00:00.000Z').valueOf();
sats=[{"REV_AT_EPOCH":"4404","ARG_OF_PERICENTER":"79.0412","CLASSIFICATION_TYPE":"U","PERIAPSIS":"546.297","BSTAR":"0.00005052000000","SEMIMAJOR_AXIS":"6925.395","PERIOD":"95.593","MEAN_MOTION_DDOT":"0.0000000000000","TLE_LINE1":"1 48595U 21041AU  22054.87447642  .00000471  00000-0  50520-4 0  9992","EPOCH":"2022-02-23T20:59:14.762688","MEAN_MOTION_DOT":"0.00000471","RCS_SIZE":"LARGE","SITE":"AFETR","APOAPSIS":"548.224","TLE_LINE2":"2 48595  53.0537 282.3306 0001391  79.0412 281.0733 15.06384754 44046","MEAN_MOTION":"15.06384754","RA_OF_ASC_NODE":"282.3306","TIME_SYSTEM":"UTC","OBJECT_ID":"2021-041AU","ECCENTRICITY":"0.00013910","GP_ID":"196788227","ELEMENT_SET_NO":"999","MEAN_ELEMENT_THEORY":"SGP4","LAUNCH_DATE":"2021-05-15","INCLINATION":"53.0537","FILE":"3317219","MEAN_ANOMALY":"281.0733","CENTER_NAME":"EARTH","REF_FRAME":"TEME","OBJECT_NAME":"STARLINK-2252","NORAD_CAT_ID":"48595","DECAY_DATE":null,"EPHEMERIS_TYPE":"0","COUNTRY_CODE":"US","OBJECT_TYPE":"PAYLOAD"},{"CENTER_NAME":"EARTH","REF_FRAME":"TEME","MEAN_ANOMALY":"293.4480","DECAY_DATE":null,"OBJECT_TYPE":"PAYLOAD","COUNTRY_CODE":"US","EPHEMERIS_TYPE":"0","OBJECT_NAME":"STARLINK-2253","NORAD_CAT_ID":"48596","TIME_SYSTEM":"UTC","OBJECT_ID":"2021-041AV","ECCENTRICITY":"0.00016340","LAUNCH_DATE":"2021-05-15","FILE":"3317219","INCLINATION":"53.0556","ELEMENT_SET_NO":"999","GP_ID":"196787977","MEAN_ELEMENT_THEORY":"SGP4","MEAN_MOTION_DOT":"0.00000369","EPOCH":"2022-02-23T21:31:05.477952","MEAN_MOTION_DDOT":"0.0000000000000","TLE_LINE1":"1 48596U 21041AV  22054.89659118  .00000369  00000-0  43715-4 0  9992","MEAN_MOTION":"15.06389294","RA_OF_ASC_NODE":"282.2293","RCS_SIZE":"LARGE","SITE":"AFETR","APOAPSIS":"548.378","TLE_LINE2":"2 48596  53.0556 282.2293 0001634  66.6680 293.4480 15.06389294 43231","PERIAPSIS":"546.115","REV_AT_EPOCH":"4323","ARG_OF_PERICENTER":"66.6680","CLASSIFICATION_TYPE":"U","BSTAR":"0.00004371500000","SEMIMAJOR_AXIS":"6925.381","PERIOD":"95.593"},{"PERIAPSIS":"546.005","REV_AT_EPOCH":"4404","CLASSIFICATION_TYPE":"U","ARG_OF_PERICENTER":"77.0541","BSTAR":"0.00007257400000","SEMIMAJOR_AXIS":"6925.333","PERIOD":"95.592","MEAN_MOTION_DOT":"0.00000800","EPOCH":"2022-02-23T21:41:42.387648","MEAN_MOTION_DDOT":"0.0000000000000","TLE_LINE1":"1 48597U 21041AW  22054.90396282  .00000800  00000-0  72574-4 0  9990","MEAN_MOTION":"15.06405068","RA_OF_ASC_NODE":"282.2030","RCS_SIZE":"LARGE","SITE":"AFETR","APOAPSIS":"548.391","TLE_LINE2":"2 48597  53.0540 282.2030 0001723  77.0541 283.0640 15.06405068 44046","TIME_SYSTEM":"UTC","OBJECT_ID":"2021-041AW","ECCENTRICITY":"0.00017230","LAUNCH_DATE":"2021-05-15","FILE":"3317219","INCLINATION":"53.0540","GP_ID":"196786725","ELEMENT_SET_NO":"999","MEAN_ELEMENT_THEORY":"SGP4","CENTER_NAME":"EARTH","REF_FRAME":"TEME","MEAN_ANOMALY":"283.0640","DECAY_DATE":null,"COUNTRY_CODE":"US","OBJECT_TYPE":"PAYLOAD","EPHEMERIS_TYPE":"0","OBJECT_NAME":"STARLINK-2255","NORAD_CAT_ID":"48597"},{"MEAN_ELEMENT_THEORY":"SGP4","GP_ID":"196786975","ELEMENT_SET_NO":"999","FILE":"3317219","INCLINATION":"53.0535","LAUNCH_DATE":"2021-05-15","ECCENTRICITY":"0.00017240","OBJECT_ID":"2021-041AX","TIME_SYSTEM":"UTC","NORAD_CAT_ID":"48598","OBJECT_NAME":"STARLINK-2256","COUNTRY_CODE":"US","OBJECT_TYPE":"PAYLOAD","EPHEMERIS_TYPE":"0","DECAY_DATE":null,"MEAN_ANOMALY":"289.2022","REF_FRAME":"TEME","CENTER_NAME":"EARTH","PERIOD":"95.592","SEMIMAJOR_AXIS":"6925.335","BSTAR":"0.00029479000000","CLASSIFICATION_TYPE":"U","ARG_OF_PERICENTER":"70.9154","REV_AT_EPOCH":"4322","PERIAPSIS":"546.007","TLE_LINE2":"2 48598  53.0535 282.4707 0001724  70.9154 289.2022 15.06404279 43221","APOAPSIS":"548.394","SITE":"AFETR","RCS_SIZE":"LARGE","RA_OF_ASC_NODE":"282.4707","MEAN_MOTION":"15.06404279","TLE_LINE1":"1 48598U 21041AX  22054.84129804  .00004113  00000-0  29479-3 0  9994","MEAN_MOTION_DDOT":"0.0000000000000","MEAN_MOTION_DOT":"0.00004113","EPOCH":"2022-02-23T20:11:28.150656"},{"BSTAR":"0.00001799000000","SEMIMAJOR_AXIS":"6925.358","PERIOD":"95.592","PERIAPSIS":"546.248","REV_AT_EPOCH":"4439","CLASSIFICATION_TYPE":"U","ARG_OF_PERICENTER":"72.5003","MEAN_MOTION":"15.06396921","RA_OF_ASC_NODE":"257.3437","RCS_SIZE":"LARGE","SITE":"AFETR","APOAPSIS":"548.198","TLE_LINE2":"2 48599  53.0544 257.3437 0001408  72.5003 287.6140 15.06396921 44399","EPOCH":"2022-02-23T20:49:18.321024","MEAN_MOTION_DOT":"-0.00000014","MEAN_MOTION_DDOT":"0.0000000000000","TLE_LINE1":"1 48599U 21041AY  22054.86757316 -.00000014  00000-0  17990-4 0  9995","LAUNCH_DATE":"2021-05-15","INCLINATION":"53.0544","FILE":"3317219","GP_ID":"196787727","ELEMENT_SET_NO":"999","MEAN_ELEMENT_THEORY":"SGP4","TIME_SYSTEM":"UTC","OBJECT_ID":"2021-041AY","ECCENTRICITY":"0.00014080","DECAY_DATE":null,"EPHEMERIS_TYPE":"0","COUNTRY_CODE":"US","OBJECT_TYPE":"PAYLOAD","OBJECT_NAME":"STARLINK-2274","NORAD_CAT_ID":"48599","CENTER_NAME":"EARTH","REF_FRAME":"TEME","MEAN_ANOMALY":"287.6140"},{"MEAN_ANOMALY":"280.2493","REF_FRAME":"TEME","CENTER_NAME":"EARTH","NORAD_CAT_ID":"48600","OBJECT_NAME":"STARLINK-2275","COUNTRY_CODE":"US","OBJECT_TYPE":"PAYLOAD","EPHEMERIS_TYPE":"0","DECAY_DATE":null,"ECCENTRICITY":"0.00014650","TIME_SYSTEM":"UTC","OBJECT_ID":"2021-041AZ","ELEMENT_SET_NO":"999","GP_ID":"196788478","MEAN_ELEMENT_THEORY":"SGP4","FILE":"3317219","INCLINATION":"53.0544","LAUNCH_DATE":"2021-05-15","TLE_LINE1":"1 48600U 21041AZ  22054.90489108  .00001666  00000-0  13079-3 0  9990","MEAN_MOTION_DDOT":"0.0000000000000","EPOCH":"2022-02-23T21:43:02.589312","MEAN_MOTION_DOT":"0.00001666","APOAPSIS":"548.286","TLE_LINE2":"2 48600  53.0544 272.1738 0001465  79.8661 280.2493 15.06381214 44180","RCS_SIZE":"LARGE","SITE":"AFETR","RA_OF_ASC_NODE":"272.1738","MEAN_MOTION":"15.06381214","ARG_OF_PERICENTER":"79.8661","CLASSIFICATION_TYPE":"U","REV_AT_EPOCH":"4418","PERIAPSIS":"546.257","PERIOD":"95.593","BSTAR":"0.00013079000000","SEMIMAJOR_AXIS":"6925.406"},{"GP_ID":"196787226","ELEMENT_SET_NO":"999","MEAN_ELEMENT_THEORY":"SGP4","LAUNCH_DATE":"2021-05-15","FILE":"3317219","INCLINATION":"53.0516","TIME_SYSTEM":"UTC","OBJECT_ID":"2021-041BB","ECCENTRICITY":"0.00017040","OBJECT_NAME":"STARLINK-2713","NORAD_CAT_ID":"48602","DECAY_DATE":null,"COUNTRY_CODE":"US","EPHEMERIS_TYPE":"0","OBJECT_TYPE":"PAYLOAD","MEAN_ANOMALY":"288.1608","CENTER_NAME":"EARTH","REF_FRAME":"TEME","BSTAR":"0.00000208000000","SEMIMAJOR_AXIS":"6925.383","PERIOD":"95.593","REV_AT_EPOCH":"4437","CLASSIFICATION_TYPE":"U","ARG_OF_PERICENTER":"71.9566","PERIAPSIS":"546.068","RCS_SIZE":"LARGE","SITE":"AFETR","APOAPSIS":"548.428","TLE_LINE2":"2 48602  53.0516 257.4973 0001704  71.9566 288.1608 15.06388740 44378","MEAN_MOTION":"15.06388740","RA_OF_ASC_NODE":"257.4973","MEAN_MOTION_DDOT":"0.0000000000000","TLE_LINE1":"1 48602U 21041BB  22054.83439760 -.00000251  00000-0  20800-5 0  9995","MEAN_MOTION_DOT":"-0.00000251","EPOCH":"2022-02-23T20:01:31.952640"},{"TIME_SYSTEM":"UTC","OBJECT_ID":"2021-041BC","ECCENTRICITY":"0.00014660","ELEMENT_SET_NO":"999","GP_ID":"196787476","MEAN_ELEMENT_THEORY":"SGP4","LAUNCH_DATE":"2021-05-15","INCLINATION":"53.0533","FILE":"3317219","MEAN_ANOMALY":"287.4376","CENTER_NAME":"EARTH","REF_FRAME":"TEME","OBJECT_NAME":"STARLINK-2714","NORAD_CAT_ID":"48603","DECAY_DATE":null,"COUNTRY_CODE":"US","OBJECT_TYPE":"PAYLOAD","EPHEMERIS_TYPE":"0","REV_AT_EPOCH":"4445","ARG_OF_PERICENTER":"72.6773","CLASSIFICATION_TYPE":"U","PERIAPSIS":"546.220","BSTAR":"-0.00000476020000","SEMIMAJOR_AXIS":"6925.370","PERIOD":"95.593","MEAN_MOTION_DDOT":"0.0000000000000","TLE_LINE1":"1 48603U 21041BC  22054.81363188 -.00000352  00000-0 -47602-5 0  9996","EPOCH":"2022-02-23T19:31:37.794432","MEAN_MOTION_DOT":"-0.00000352","RCS_SIZE":"LARGE","SITE":"AFETR","APOAPSIS":"548.250","TLE_LINE2":"2 48603  53.0533 252.5913 0001466  72.6773 287.4376 15.06393003 44452","MEAN_MOTION":"15.06393003","RA_OF_ASC_NODE":"252.5913"},{"RA_OF_ASC_NODE":"282.2941","MEAN_MOTION":"15.06401590","TLE_LINE2":"2 48604  53.0555 282.2941 0001703  65.5847 294.5320 15.06401590 44049","APOAPSIS":"548.388","SITE":"AFETR","RCS_SIZE":"LARGE","EPOCH":"2022-02-23T21:09:51.115968","MEAN_MOTION_DOT":"0.00002583","TLE_LINE1":"1 48604U 21041BD  22054.88184162  .00002583  00000-0  19224-3 0  9990","MEAN_MOTION_DDOT":"0.0000000000000","PERIOD":"95.592","SEMIMAJOR_AXIS":"6925.344","BSTAR":"0.00019224000000","PERIAPSIS":"546.029","ARG_OF_PERICENTER":"65.5847","CLASSIFICATION_TYPE":"U","REV_AT_EPOCH":"4404","OBJECT_TYPE":"PAYLOAD","COUNTRY_CODE":"US","EPHEMERIS_TYPE":"0","DECAY_DATE":null,"NORAD_CAT_ID":"48604","OBJECT_NAME":"STARLINK-2757","REF_FRAME":"TEME","CENTER_NAME":"EARTH","MEAN_ANOMALY":"294.5320","INCLINATION":"53.0555","FILE":"3317219","LAUNCH_DATE":"2021-05-15","MEAN_ELEMENT_THEORY":"SGP4","ELEMENT_SET_NO":"999","GP_ID":"196788228","ECCENTRICITY":"0.00017030","OBJECT_ID":"2021-041BD","TIME_SYSTEM":"UTC"},{"CLASSIFICATION_TYPE":"U","ARG_OF_PERICENTER":"79.5973","REV_AT_EPOCH":"4148","PERIAPSIS":"546.199","PERIOD":"95.592","SEMIMAJOR_AXIS":"6925.366","BSTAR":"0.00009742100000","TLE_LINE1":"1 48638U 21044A   22054.83343805  .00001170  00000-0  97421-4 0  9993","MEAN_MOTION_DDOT":"0.0000000000000","MEAN_MOTION_DOT":"0.00001170","EPOCH":"2022-02-23T20:00:09.047520","TLE_LINE2":"2 48638  53.0558 257.5090 0001490  79.5973 280.5184 15.06394442 41482","APOAPSIS":"548.262","SITE":"AFETR","RCS_SIZE":"LARGE","RA_OF_ASC_NODE":"257.5090","MEAN_MOTION":"15.06394442","ECCENTRICITY":"0.00014900","OBJECT_ID":"2021-044A","TIME_SYSTEM":"UTC","MEAN_ELEMENT_THEORY":"SGP4","ELEMENT_SET_NO":"999","GP_ID":"196786730","FILE":"3317219","INCLINATION":"53.0558","LAUNCH_DATE":"2021-05-26","MEAN_ANOMALY":"280.5184","REF_FRAME":"TEME","CENTER_NAME":"EARTH","NORAD_CAT_ID":"48638","OBJECT_NAME":"STARLINK-2758","COUNTRY_CODE":"US","OBJECT_TYPE":"PAYLOAD","EPHEMERIS_TYPE":"0","DECAY_DATE":null}];
